[{"OBJECT_NAME":"CHUANGXIN 1-03 (CX-1-03)","OBJECT_ID":"2011-068A","EPOCH":"2026-03-09T23:48:05.343264","MEAN_MOTION":14.30514213,"ECCENTRICITY":0.00158467,"INCLINATION":98.7066,"RA_OF_ASC_NODE":86.521,"ARG_OF_PERICENTER":50.1728,"MEAN_ANOMALY":9.9604,"EPHEMERIS_TYPE":0,"CLASSIFICATION_TYPE":"U","NORAD_CAT_ID":37930,"ELEMENT_SET_NO":999,"REV_AT_EPOCH":74647,"BSTAR":-1.9220958e-5,"MEAN_MOTION_DOT":-9.5e-7,"MEAN_MOTION_DDOT":0},{"OBJECT_NAME":"DELTA 1 DEB","OBJECT_ID":"1975-004AL","EPOCH":"2026-03-09T20:52:07.684032","MEAN_MOTION":14.45445213,"ECCENTRICITY":0.01178735,"INCLINATION":97.7035,"RA_OF_ASC_NODE":220.1267,"ARG_OF_PERICENTER":358.5811,"MEAN_ANOMALY":1.5031,"EPHEMERIS_TYPE":0,"CLASSIFICATION_TYPE":"U","NORAD_CAT_ID":8954,"ELEMENT_SET_NO":999,"REV_AT_EPOCH":59660,"BSTAR":0.00050705904,"MEAN_MOTION_DOT":1.903e-5,"MEAN_MOTION_DDOT":0}]
